{
  "type": "FeatureCollection",
  "features": [
    {
      "type": "Feature",
      "geometry": {
        "type": "Polygon",
        "coordinates": [
          [
            [
              53.21497638065327,
              16.640095221577752
            ],
            [
              38.9335093524482,
              16.640095221577752
            ],
            [
              38.9335093524482,
              10.226311875471453
            ],
            [
              53.21497638065327,
              10.226311875471453
            ],
            [
              53.21497638065327,
              16.640095221577752
            ]
          ]
        ]
      },
      "properties": {}
    },
    {
      "type": "Feature",
      "properties": {},
      "geometry": {
        "coordinates": [
          [
            [
              11.740699435465132,
              -17.250259389355236
            ],
            [
              14.573428173984723,
              -11.407374024776558
            ],
            [
              9.76789686387849,
              4.465971437779956
            ],
            [
              2.9874362563322734,
              8.637541541855313
            ],
            [
              -7.561591892704882,
              4.2699580414605975
            ],
            [
              4.989251658857512,
              0.001969765494138187
            ],
            [
              11.740699435465132,
              -17.250259389355236
            ]
          ]
        ],
        "type": "Polygon"
      }
    },
    {
      "type": "Feature",
      "properties": {},
      "geometry": {
        "coordinates": [
          [
            [
              29.541311280253325,
              45.14588822670484
            ],
            [
              30.953890146509735,
              45.11681655412593
            ],
            [
              31.3928624670298,
              44.04578910377725
            ],
            [
              39.95234334518895,
              43.41020891094442
            ],
            [
              40.1136318311797,
              47.65357926447089
            ],
            [
              29.660135792436193,
              48.0875257444271
            ],
            [
              29.541311280253325,
              45.14588822670484
            ]
          ]
        ],
        "type": "Polygon"
      }
    }
  ]
}