{
  "type": "FeatureCollection",
  "features": [
    {
      "type": "Feature",
      "properties": {},
      "geometry": {
        "coordinates": [
          [
            [
              132.34936151042905,
              34.792863343859196
            ],
            [
              132.34936151042905,
              33.87123476277388
            ],
            [
              135.54931283987298,
              33.87123476277388
            ],
            [
              135.54931283987298,
              34.792863343859196
            ],
            [
              132.34936151042905,
              34.792863343859196
            ]
          ]
        ],
        "type": "Polygon"
      }
    }
  ]
} 